#dP2020 12 15  0  0  0.00000000      96 __u+U ITR00 FIT  IAC
## 2136 172800.00000000   900.00000000 59198 0.0000000000000
+  114   C01C02C03C04C05C06C07C08C09C11C12C13C14C16C19C20C21
+        C22C23C24C25C26C27C28C29C30C32C33C34C35C36C37C40C60
+        E01E02E03E04E05E07E08E09E11E12E13E14E15E18E19E21E24
+        E25E26E27E30E31E33E36G01G02G03G04G05G06G07G08G09G10
+        G11G12G13G14G15G16G17G18G19G20G21G22G23G24G25G26G27
+        G28G29G30G31G32J01J02J03R01R02R03R04R05R07R08R09R11
+        R12R13R14R15R16R17R18R19R20R21R22R24  0  0  0  0  0
++        13 14 13 14 14  8  8  8  8  8  8  9  8  8  8  8  8
++         9  8  8  8  8  8  8  8  8  8  8  9  8  8  8 11  0
++         5  5  6  5  6  5  5  5  5  5  5  5  5  5  5  5  5
++         4  5  5  5  5  5  5  4  4  4  4  4  4  4  3  4  4
++         4  4  4  4  4  4  7  3  8  4  4  4  4  4  4  4  4
++         4  4  3  4  4  9  8  8  6  6  6  6  6  6  6  6  8
++         6  6  6  6  6  6  6  6  6  6  7  6  0  0  0  0  0
%c M  cc GPS ccc cccc cccc cccc cccc ccccc ccccc ccccc ccccc
%c cc cc ccc ccc cccc cccc cccc cccc ccccc ccccc ccccc ccccc
%f  0.0000000  0.000000000  0.00000000000  0.000000000000000
%f  0.0000000  0.000000000  0.00000000000  0.000000000000000
%i    0    0    0    0      0      0      0      0         0
%i    0    0    0    0      0      0      0      0         0
/* INFORMATION & ANALYSIS CENTER (IAC)            RAPID DATA
/* S/V CLOCKS ARE ALIGNED TO GNSS TIME                      
/* G:C1WC2W R:C1PC2P E:C1XC5X C:C2IC6I J:C1CC2S             
/* PCV:IGS14_2134 OL/AL:FES2004  NONE     YN ORB:CoN CLK:CoN
*  2020 12 15 20 30  0.00000000
PC01 -34316.943963  24454.508893   -332.031641   -648.098653
PC02   4314.604423  41963.176234    610.360180    667.483943
PC03 -14812.394269  39442.319342   1333.024410    258.751617
PC04 -39570.014602  14503.874426    344.281772   -201.718791
PC05  21847.281486  36072.169409    493.516007   -535.404908
PC06 -25345.762979  29367.505591 -16667.976284     58.937072
PC07 -10494.449559  36333.986294 -17892.342830   -133.645196
PC08  -8595.847039  19652.046253  36420.465831   -795.627041
PC09 -10232.979165  29050.772481 -28728.734886    870.078861
PC11  16107.406180 -16832.844578 -15329.280351   -819.796007
PC12  26290.666174  -9311.761585   1353.261013    668.442008
PC13   5103.815912  26058.184906  32931.318093     54.618923
PC14   9070.149375 -25170.356326  -8004.216647   -309.509868
PC16 -23240.845818  29849.232151 -18756.206574   -632.066662
PC19  -2943.225837  27720.306952  -1155.725276    655.179103
PC20 -13131.220973  19538.266547  14976.385939   -912.274274
PC21  15940.312640    689.165384 -22886.018763   -755.448340
PC22   9228.831759  20016.917098 -17105.891742   -815.994316
PC23 -19177.042127 -19680.403368   4839.208026   -893.857623
PC24  14914.479625  -8266.267569  22089.189166   -729.445192
PC25  -4144.253536 -20034.189744  18964.152642   -862.822047
PC26  23928.467157   6761.971092  12699.816252    942.651124
PC27 -25861.360490   2323.995953 -10258.264520    449.952234
PC28 -13573.569884 -10919.618161 -21791.128985   -133.605646
PC29  -5902.526822  17973.916769  20512.426901    325.163662
PC30 -22641.796229  14828.421295   6841.703691    417.866855
PC32 -15960.882572   -627.019788  22889.322465   -881.334798
PC33   2844.294930 -27745.471620   1087.550777   -872.228697
PC34  22284.294576 -15048.116097  -7427.791945   -785.602617
PC35  13692.618325  10683.392473  21837.656330   -511.902926
PC36   3415.959798  20033.140292 -19103.494347   -803.634748
PC37 -23856.097343  -7944.566965 -12060.230832   -864.332669
PC40  -6787.887480  39948.965403 -11353.422667    111.295553
PC60      0.000000      0.000000      0.000000 999999.999999
PE01  -8725.929711  16960.915871 -22633.724146  -1004.120755
PE02   8671.305769 -17027.691119  22603.731344    183.867566
PE03  18199.491078 -23198.427192  -2683.863676   -376.385144
PE04  -4443.094256  25189.020291 -14902.672220   -668.672586
PE05  21462.959718  -7561.294798 -18936.335593   -321.006996
PE07 -12172.139113 -12343.488266  23990.044042   -475.034035
PE08   4143.207271 -25077.768283  15170.732691   6076.607877
PE09  12238.002856  12049.599998 -24111.924357   5831.586279
PE11  22870.024407  11397.837379  14933.777891   6636.272544
PE12   2340.133539  16325.648821  24586.032141   5455.613690
PE13 -22649.651431 -11425.893708 -15238.779532    408.431100
PE14  17001.485294   3972.815258  16800.176675  -1260.753622
PE15  -2512.154950 -16230.964372 -24612.014067    838.956856
PE18 -16664.275398 -12425.842829 -24366.825035  -1377.598300
PE19 -19189.914030  22011.701145   4850.553715    153.832699
PE21 -18430.046694  -2807.435578 -22986.650899   -637.462190
PE24  17425.798490  22004.933683   9436.434387   -637.311255
PE25  18485.787186   3005.401559  22934.325889   -522.316580
PE26 -29360.601792    374.409967   3708.848970   2378.651670
PE27 -17701.755919 -21519.954928  -9956.650073     71.608760
PE30  -5918.608348 -27409.650807   9443.821699   3342.009543
PE31   6596.696864  27476.525468  -8819.800046   -476.531859
PE33 -19072.303393  11492.994127  19513.239422   -464.103368
PE36  29443.116750    -71.084148  -3053.372741    467.389902
PG01 -19554.871423 -14315.974777 -11487.900575    795.280351
PG02  -2020.740543  15425.112522  22184.286283   -554.798420
PG03 -12927.683425 -19895.352587  11957.035576    -30.733491
PG04 -11222.007106 -10405.497456  21710.774713   -164.610317
PG05   2027.361882  25563.037161   6394.351994    -28.451394
PG06 -16969.176803   7929.589605  18909.608709     -3.994507
PG07 -25912.720913  -6064.536398  -3033.396927   -434.521387
PG08  -3322.322251 -16381.786042 -20561.643402     -3.027323
PG09 -19642.057511   1270.811262  17776.366875   -301.786062
PG10  13084.315767  -8613.206805 -21313.365363    -16.778726
PG11 -11401.980375 -13681.538587 -20069.854974    -80.390663
PG12   9818.787245  22870.850335   9247.031082     26.458688
PG13  -7322.693584  19329.360357 -16749.195224     75.393570
PG14 -14300.119485   5958.698124 -21580.609719     64.599556
PG15   6524.438986  15924.256512 -20509.307418   -183.055242
PG16    891.707106 -25482.015678   6290.443355   -250.868372
PG17 -21656.683101  14884.770244  -3329.905064    367.488469
PG18  25591.031200   4474.479719  -5678.114233    332.805872
PG19 -19849.002524  17281.318753   2948.358171    -64.873421
PG20  17235.800735   4126.760027 -19921.338223    525.594833
PG21 -13242.467154 -15247.565487 -16712.063210     77.920104
PG22 -10964.191660 -23982.521654   4021.681217   -714.702840
PG23  15908.527567   3071.763894 -21079.161047    110.268982
PG24  16656.443685  15109.811941 -14657.960144      5.072615
PG25  15508.243304  11538.757082  18090.269884     40.538322
PG26   7067.259290 -19496.595956  16409.932003     14.929576
PG27   8631.900926 -20804.341194 -13936.025146    -35.578863
PG28 -12734.576670   9979.278332 -20530.470619    642.688914
PG29  18601.403348   1195.429578  18902.655252   -256.722799
PG30 -23252.938541   1979.626839 -12837.567487   -352.899956
PG31  15378.772824  -9371.036999  19601.807477    -87.820917
PG32  20802.439777 -15928.713244  -3691.099813      8.282055
PJ01 -30589.182119  25582.138146  18595.038091   -335.080372
PJ02 -20358.574548  20831.878802 -25973.628658      0.113012
PJ03 -29461.610301  29185.697053  13176.770711     -4.401994
PR01   6524.985520  12974.991220 -20973.575266     72.097575
PR02  13066.015905  -9192.977904 -19830.736365    458.761132
PR03  10514.177689 -22448.378079  -5860.462422     27.381701
PR04   2126.154263 -22791.660322  11264.961804     65.810297
PR05  -7418.983556 -10364.772529  22093.232845     62.953377
PR07 -10368.559370  22721.496689   5336.206654    -41.815455
PR08  -2126.179711  22835.287091 -11145.073085    -56.298386
PR09 -15810.214032  -3052.699098 -19789.035564     13.254484
PR11   9691.756005  19740.840061 -13039.935137 999999.999999
PR12  18471.132881  16627.119456   5835.536224    188.567897
PR13  15798.407036   3453.632921  19713.236968    -48.008392
PR14   3573.828912 -12061.798396  22203.786740     58.794898
PR15 -10354.526577 -20163.309036  11714.871629    106.346352
PR16 -18918.153857 -15669.227333  -6638.853446     -9.169046
PR17  16995.481327 -10654.511036 -15769.475034    382.702727
PR18   -155.055045 -10586.006077 -23183.873491     59.772659
PR19 -16456.672820  -5659.651917 -18638.869386   -123.881483
PR20 -25238.337775   3660.625336  -1135.104516   -428.914533
PR21 -16044.984248  10751.406191  16651.315803   -173.394224
PR22   1246.585686  10352.412924  23272.874254    -87.153935
PR24  25158.839923  -4244.853331    456.594171     24.198854
EOF
